{
  "type": "FeatureCollection",
  "features": [
    {
      "type": "Feature",
      "properties": {
        "norad_id": 64903,
        "name": "CO3D 1",
        "group": "resource",
        "lat": -37.564669768399625,
        "lon": -108.76389985143136,
        "alt_km": 512.1416502322827,
        "timestamp": "2025-12-26T22:28:05.437369+00:00",
        "meta_object_name": "CO3D 1",
        "meta_object_id": "2025-156E",
        "meta_epoch": "2025-12-26T12:02:03.647040",
        "meta_mean_motion": 15.20191629,
        "meta_eccentricity": 7.686e-05,
        "meta_inclination": 97.434,
        "meta_ra_of_asc_node": 76.5713,
        "meta_arg_of_pericenter": 74.426,
        "meta_mean_anomaly": 285.706,
        "meta_ephemeris_type": 0,
        "meta_classification_type": "U",
        "meta_norad_cat_id": 64903,
        "meta_element_set_no": 999,
        "meta_rev_at_epoch": 2329,
        "meta_bstar": 0.0003276941,
        "meta_mean_motion_dot": 7.031e-05,
        "meta_mean_motion_ddot": 0,
        "tle_line1": "1 64903U 25156E   25360.50143110  .00007031  00000+0  32769-3 0  9992",
        "tle_line2": "2 64903  97.4340  76.5713 0000768  74.4260 285.7060 15.20191629 23294"
      },
      "geometry": {
        "type": "Point",
        "coordinates": [
          -108.76389985143136,
          -37.564669768399625
        ]
      }
    },
    {
      "type": "Feature",
      "properties": {
        "norad_id": 66514,
        "name": "SENTINEL-6B",
        "group": "resource",
        "lat": 32.30590865812476,
        "lon": 149.27690589371647,
        "alt_km": 1338.4152914763254,
        "timestamp": "2025-12-26T22:28:05.437379+00:00",
        "meta_object_name": "SENTINEL-6B",
        "meta_object_id": "2025-264A",
        "meta_epoch": "2025-12-26T18:32:03.290784",
        "meta_mean_motion": 12.8092957,
        "meta_eccentricity": 0.0007911,
        "meta_inclination": 66.0401,
        "meta_ra_of_asc_node": 133.2883,
        "meta_arg_of_pericenter": 269.9837,
        "meta_mean_anomaly": 90.0272,
        "meta_ephemeris_type": 0,
        "meta_classification_type": "U",
        "meta_norad_cat_id": 66514,
        "meta_element_set_no": 999,
        "meta_rev_at_epoch": 508,
        "meta_bstar": 8.0357e-05,
        "meta_mean_motion_dot": -4.3e-07,
        "meta_mean_motion_ddot": 0,
        "tle_line1": "1 66514U 25264A   25360.77226031 -.00000043  00000+0  80357-4 0  9999",
        "tle_line2": "2 66514  66.0401 133.2883 0007911 269.9837  90.0272 12.80929570  5087"
      },
      "geometry": {
        "type": "Point",
        "coordinates": [
          149.27690589371647,
          32.30590865812476
        ]
      }
    }
  ]
}